[{"OBJECT_NAME":"KINEIS-2B","OBJECT_ID":"2025-028G","EPOCH":"2026-03-09T16:59:55.239072","MEAN_MOTION":14.73115129,"ECCENTRICITY":0.00049359,"INCLINATION":97.9793,"RA_OF_ASC_NODE":123.3387,"ARG_OF_PERICENTER":108.6363,"MEAN_ANOMALY":251.5381,"EPHEMERIS_TYPE":0,"CLASSIFICATION_TYPE":"U","NORAD_CAT_ID":62934,"ELEMENT_SET_NO":999,"REV_AT_EPOCH":5801,"BSTAR":0.00027024703,"MEAN_MOTION_DOT":1.691e-5,"MEAN_MOTION_DDOT":0},{"OBJECT_NAME":"FENGYUN 1C DEB","OBJECT_ID":"1999-025ESZ","EPOCH":"2026-03-09T06:55:18.758784","MEAN_MOTION":14.18552494,"ECCENTRICITY":0.0265717,"INCLINATION":98.0483,"RA_OF_ASC_NODE":94.9001,"ARG_OF_PERICENTER":121.3246,"MEAN_ANOMALY":241.4236,"EPHEMERIS_TYPE":0,"CLASSIFICATION_TYPE":"U","NORAD_CAT_ID":38514,"ELEMENT_SET_NO":999,"REV_AT_EPOCH":89222,"BSTAR":0.0020350981,"MEAN_MOTION_DOT":5.946e-5,"MEAN_MOTION_DDOT":0}]
